DISKSAT B               
1 67220U 25305B   26013.85712395  .00006482  00000+0  44967-3 0  9996
2 67220  45.0014 180.8091 0001637  26.4540 333.6418 15.06322570  4023
DISKSAT D               
1 67221U 25305C   26013.52630727  .00006570  00000+0  45604-3 0  9996
2 67221  45.0014 182.5669 0002031  34.4465 325.6541 15.06284875  3974
DISKSAT A               
1 67222U 25305D   26013.46114164  .00008632  00000+0  59449-3 0  9995
2 67222  45.0016 182.9257 0001862  42.8641 317.2379 15.06249334  3959
ELECTRON KICK STAGE R/B 
1 67223U 25305E   26013.73448155  .00083701  10334-4  72277-3 0  9996
2 67223  44.9836 171.4991 0162679 293.2685  65.1155 15.53748381  4129
TJS-23                  
1 67226U 25306A   26013.02906092  .00000042  00000+0  00000+0 0  9993
2 67226   5.9407 298.2889 0000400  55.3711 304.8164  1.00269729   330
CZ-5 R/B                
1 67227U 25306B   26013.11108587  .00007809  00000+0  21721-2 0  9991
2 67227  16.2781 291.2136 7577945 193.4722 119.8226  1.92516400   475
QPS-SAR-15              
1 67228U 25307A   26013.98047284  .00002987  00000+0  26814-3 0  9995
2 67228  42.0082 353.7743 0007794  61.6363 298.5247 14.97361073  3558
ELECTRON R/B            
1 67229U 25307B   26013.94506569  .00829557  26809-3  13947-2 0  9999
2 67229  41.9909 339.3258 0143547  50.7193 310.6296 15.85558552  3719
ELECTRON KICK STAGE R/B 
1 67230U 25307C   26014.18492660  .03471626  82055-5  15657-2 0  9994
2 67230  41.9966 335.8786 0070204  88.9654 271.9256 16.14972381  2172
SPACEMOBILE-006         
1 67232U 25309A   26013.33447866  .00000228  00000+0  26819-4 0  9993
2 67232  52.9991 320.4562 0011886  24.9692 335.1874 15.17738252  3077
LVM3 R/B                
1 67233U 25309B   26013.96840504  .00004907  00000+0  24172-3 0  9996
2 67233  52.9280 317.0616 0011664  51.3561 308.8474 15.19665242  3178
2025-310A               
1 67234U 25310A   26013.97697693  .00000022  00000+0  10608-4 0  9993
2 67234  97.9663  23.5005 0001885 181.8361 178.2842 14.75705628  2884
SL-4 R/B                
1 67235U 25310B   26013.52883765  .00292788  23993-5  59113-3 0  9999
2 67235  97.9611  25.1455 0269212   8.1947 352.3572 15.58601207  2948
HULIANWANG DIGUI-128    
1 67236U 25311A   26013.98113040 -.00000037  00000+0  87642-4 0  9995
2 67236  50.0102 320.0148 0006555 340.8026  19.2624 13.90210360  2658
HULIANWANG DIGUI-129    
1 67237U 25311B   26013.98237393 -.00000044  00000+0  82395-4 0  9992
2 67237  50.0092 320.0186 0007799 342.3499  17.7127 13.90166645  2658
HULIANWANG DIGUI-130    
1 67238U 25311C   26013.98906461 -.00000038  00000+0  86829-4 0  9991
2 67238  50.0072 320.0484 0007758 319.8085  40.2239 13.90218234  2650
HULIANWANG DIGUI-131    
1 67239U 25311D   26013.92027645 -.00000037  00000+0  87641-4 0  9996
2 67239  50.0068 320.3494 0009369 326.9358  33.0954 13.90205261  2641
HULIANWANG DIGUI-132    
1 67240U 25311E   26013.98599824 -.00000044  00000+0  82085-4 0  9992
2 67240  50.0079 320.0343 0008456 333.8811  26.1661 13.90231150  2657
HULIANWANG DIGUI-133    
1 67241U 25311F   26013.98415842 -.00000040  00000+0  85074-4 0  9997
2 67241  50.0123 320.0357 0007571 338.0303  22.0270 13.90209126  2652
HULIANWANG DIGUI-134    
1 67242U 25311G   26013.98523899 -.00000035  00000+0  88992-4 0  9996
2 67242  50.0054 320.0237 0006695 327.0200  33.0280 13.90195201  2654
HULIANWANG DIGUI-135    
1 67243U 25311H   26013.98731537 -.00000042  00000+0  83371-4 0  9991
2 67243  50.0040 320.0310 0007912 329.4914  30.5524 13.90184203  2656
HULIANWANG DIGUI-136    
1 67244U 25311J   26013.98302942 -.00000041  00000+0  84186-4 0  9990
2 67244  50.0112 320.0264 0006835 335.8014  24.2562 13.90230072  2658
CZ-8A R/B               
1 67245U 25311K   26013.98095628 -.00000262  00000+0 -55210-4 0  9993
2 67245  50.0040 317.3308 0088957 147.6920 212.9479 14.12608828  2697
FENGYUN 4C              
1 67246U 25312A   26013.54487236 -.00000304  00000+0  00000+0 0  9995
2 67246   0.0775 242.5712 0002570  46.5577 153.1255  1.00271186   229
CZ-3B R/B               
1 67247U 25312B   26013.30041885  .00172942 -31868-6  51307-3 0  9997
2 67247  28.4106 327.3433 7209820 190.3323 137.2956  2.43501412   424
2025-313A               
1 67248U 25313A   26013.91249408  .00001320  00000+0  13623-3 0  9993
2 67248  97.5634  90.1764 0280530 112.2218 250.9000 14.66790903  2402
2025-313B               
1 67249U 25313B   26013.84300759  .00002767  00000+0  21427-3 0  9990
2 67249  97.5325  90.1909 0297763 116.7079 246.4940 14.73186953  2406
2025-313C               
1 67250U 25313C   26013.85552460  .00009297  00000+0  87087-3 0  9990
2 67250  97.6367  90.7005 0163033 126.7838 234.8467 14.84650299  2422
2025-313D               
1 67251U 25313D   26013.87542295  .00002242  00000+0  19840-3 0  9993
2 67251  97.5880  90.7083 0152364 119.3209 242.3329 14.88735898  2438
ZORKIY-2M-VPE           
1 67252U 25313E   26013.85575477  .00005135  00000+0  23007-3 0  9994
2 67252  97.4118  91.0721 0011025 160.7446 199.4209 15.21628935  2481
2025-313F               
1 67253U 25313F   26013.86162098  .00036639  00000+0  37266-3 0  9992
2 67253  97.1036  91.1821 0010371 179.4765 180.6508 15.65013359  2530
2025-313G               
1 67254U 25313G   26013.86235536  .00025711  00000+0  26368-3 0  9991
2 67254  97.1035  91.1812 0010600 180.6914 179.4333 15.64865298  2522
2025-313H               
1 67255U 25313H   26013.86378769  .00001091  00000+0  80100-4 0  9998
2 67255  97.3105  90.4130 0091149 139.8581 220.9426 15.02163832  2455
SITRO-AIS-57            
1 67256U 25313J   26013.87477635  .00006038  00000+0  28359-3 0  9995
2 67256  97.4110  91.0423 0016838 179.3325 180.7935 15.19861245  2484
SITRO-AIS-59            
1 67257U 25313K   26013.87438383  .00006076  00000+0  28518-3 0  9992
2 67257  97.4117  91.0440 0016558 181.3745 178.7447 15.19887503  2489
SITRO-AIS-58            
1 67258U 25313L   26013.87406552  .00006032  00000+0  28282-3 0  9996
2 67258  97.4113  91.0429 0016506 180.6873 179.4342 15.19930123  2489
2025-313M               
1 67259U 25313M   26013.87160820  .00007288  00000+0  33827-3 0  9997
2 67259  97.4156  91.0668 0015712 179.1776 180.9488 15.20214520  2481
SITRO-AIS-60            
1 67260U 25313N   26013.87267518  .00004918  00000+0  23064-3 0  9990
2 67260  97.4120  91.0469 0015910 180.8144 179.3068 15.20021275  2480
2025-313P               
1 67261U 25313P   26013.87046486  .00009643  00000+0  44408-3 0  9995
2 67261  97.4156  91.0687 0015547 179.4621 180.6634 15.20400180  2482
2025-313Q               
1 67262U 25313Q   26013.87148025  .00006978  00000+0  32419-3 0  9995
2 67262  97.4123  91.0488 0015584 181.4682 178.6510 15.20198788  2485
2025-313R               
1 67263U 25313R   26013.87170681  .00005993  00000+0  27933-3 0  9990
2 67263  97.4135  91.0628 0015528 180.3609 179.7618 15.20149579  2485
2025-313S               
1 67264U 25313S   26013.87236311  .00004260  00000+0  20021-3 0  9991
2 67264  97.4204  91.0593 0015511 185.5190 174.5877 15.20031883  2486
SITRO-TD-4              
1 67265U 25313T   26013.87137710  .00005481  00000+0  25556-3 0  9999
2 67265  97.4115  91.0585 0015460 181.2064 178.9137 15.20174544  2484
SITRO-AIS-65            
1 67266U 25313U   26013.87132852  .00006000  00000+0  27937-3 0  9995
2 67266  97.4143  91.0638 0015380 179.9209 180.2031 15.20185753  2484
2025-313V               
1 67267U 25313V   26013.87095007  .00006672  00000+0  30988-3 0  9991
2 67267  97.4124  91.0520 0014578 185.5438 174.5638 15.20242528  2482
ZORKY-2M 7              
1 67268U 25313W   26013.87153215  .00005343  00000+0  24948-3 0  9991
2 67268  97.4124  91.0497 0015544 180.7377 179.3838 15.20139460  2484
2025-313X               
1 67269U 25313X   26013.87064904  .00007575  00000+0  35048-3 0  9990
2 67269  97.4152  91.0661 0015388 179.0849 181.0418 15.20315655  2486
SITRO-TD-3              
1 67270U 25313Y   26013.87164447  .00006049  00000+0  28187-3 0  9996
2 67270  97.4125  91.0601 0015504 180.8779 179.2432 15.20155981  2483
2025-313Z               
1 67271U 25313Z   26013.87225453  .00003288  00000+0  15536-3 0  9998
2 67271  97.4118  91.0498 0015524 176.8431 183.2905 15.20005916  2484
2025-313AA              
1 67272U 25313AA  26013.87021605  .00006597  00000+0  30552-3 0  9993
2 67272  97.4123  91.0509 0015245 181.2037 178.9164 15.20337100  2487
2025-313AB              
1 67273U 25313AB  26013.87211339  .00002491  00000+0  11859-3 0  9997
2 67273  97.4136  91.0527 0014415 185.3758 174.7325 15.19992001  2483
2025-313AC              
1 67274U 25313AC  26013.87112200  .00004401  00000+0  20601-3 0  9993
2 67274  97.4112  91.0576 0015205 180.2868 179.8361 15.20153477  2480
2025-313AD              
1 67275U 25313AD  26013.87054745  .00005018  00000+0  23409-3 0  9997
2 67275  97.4086  91.0534 0014416 183.0788 177.0361 15.20213881  2486
2025-313AE              
1 67276U 25313AE  26013.47557768  .00005263  00000+0  24540-3 0  9996
2 67276  97.4091  90.6660 0014318 184.6140 175.4966 15.20209207  2422
2025-313AF              
1 67277U 25313AF  26013.87070386  .00004172  00000+0  19539-3 0  9997
2 67277  97.4094  91.0544 0014348 183.0254 177.0897 15.20179996  2482
2025-313AG              
1 67278U 25313AG  26013.87055440  .00004256  00000+0  19916-3 0  9994
2 67278  97.4096  91.0552 0014308 182.8989 177.2166 15.20196449  2496
GALAPAGOS-UTE-SWSU      
1 67279U 25313AH  26013.87000729  .00004874  00000+0  22707-3 0  9993
2 67279  97.4107  91.0580 0014887 179.8916 180.2325 15.20270477  2483
2025-313AJ              
1 67280U 25313AJ  26013.86634352  .00003675  00000+0  17060-3 0  9993
2 67280  97.4177  91.0652 0013788 176.5408 183.5926 15.20567324  2484
2025-313AK              
1 67281U 25313AK  26013.86537472  .00003670  00000+0  17000-3 0  9998
2 67281  97.4060  91.0525 0012510 175.2847 184.8509 15.20658721  2483
